[
  {
    "naam": "Alberte",
    "straat": "Dendermonsesteenweg ",
    "huisnr": "78",
    "huisnrtoev": "",
    "postcode": "9000",
    "deelgemeente": "Gent",
    "BRANCHE": "",
    "image": "/images/resto/1.jpg",
    "column_8": "",
    "column_9": "",
    "column_10": ""
  },
  {
    "naam": "Ambachtelijke Quiche Partiron",
    "straat": "Sluizeken",
    "huisnr": "30",
    "huisnrtoev": "",
    "postcode": "9000",
    "deelgemeente": "Gent",
    "BRANCHE": "59.210.434-Restaurant",
    "image": "/images/resto/2.jpg",
    "column_8": "",
    "column_9": "",
    "column_10": ""
  },
  {
    "naam": "Aspendos",
    "straat": "Oudburg",
    "huisnr": "11",
    "huisnrtoev": "",
    "postcode": "9000",
    "deelgemeente": "Gent",
    "BRANCHE": "59.210.434-Restaurant",
    "image": "/images/resto/3.jpg",
    "column_8": "",
    "column_9": "",
    "column_10": ""
  },
  {
    "naam": "Avalon",
    "straat": "Geldmunt",
    "huisnr": "32",
    "huisnrtoev": "",
    "postcode": "9000",
    "deelgemeente": "Gent",
    "BRANCHE": "59.210.434-Restaurant",
    "image": "/images/resto/4.jpg",
    "column_8": "",
    "column_9": "",
    "column_10": ""
  },
  {
    "naam": "Bar Italiano",
    "straat": "Zwijnaardsesteenweg",
    "huisnr": "83",
    "huisnrtoev": "",
    "postcode": "9000",
    "deelgemeente": "Gent",
    "BRANCHE": "59.210.434-Restaurant",
    "image": "/images/resto/5.jpg",
    "column_8": "",
    "column_9": "",
    "column_10": ""
  },
  {
    "naam": "Baravins",
    "straat": "Steendam",
    "huisnr": "53",
    "huisnrtoev": "",
    "postcode": "9000",
    "deelgemeente": "Gent",
    "BRANCHE": "59.210.430-Café-Restaurant",
    "image": "/images/resto/6.jpeg",
    "column_8": "",
    "column_9": "",
    "column_10": ""
  },
  {
    "naam": "Baskuul",
    "straat": "Godshuizenlaan",
    "huisnr": "77",
    "huisnrtoev": "",
    "postcode": "9000",
    "deelgemeente": "Gent",
    "BRANCHE": "59.210.430-Café-Restaurant",
    "image": "/images/resto/7.jpeg",
    "column_8": "",
    "column_9": "",
    "column_10": ""
  },
  {
    "naam": "Casa de Las Tapas",
    "straat": "Corduwaniersstraat",
    "huisnr": "41",
    "huisnrtoev": "",
    "postcode": "9000",
    "deelgemeente": "Gent",
    "BRANCHE": "59.210.434-Restaurant",
    "image": "/images/resto/8.jpeg",
    "column_8": "",
    "column_9": "",
    "column_10": ""
  },
  {
    "naam": "Corner House",
    "straat": "Lange Violettestraat",
    "huisnr": "102",
    "huisnrtoev": "",
    "postcode": "9000",
    "deelgemeente": "Gent",
    "BRANCHE": "59.210.430-Café-Restaurant",
    "image": "/images/resto/9.jpeg",
    "column_8": "",
    "column_9": "",
    "column_10": ""
  },
  {
    "naam": "De Casserolle",
    "straat": "Dampoortstraat",
    "huisnr": "5",
    "huisnrtoev": "",
    "postcode": "9000",
    "deelgemeente": "Gent",
    "BRANCHE": "59.210.434-Restaurant",
    "image": "/images/resto/10.jpeg",
    "column_8": "",
    "column_9": "",
    "column_10": ""
  },
  {
    "naam": "De Centrale wereldrestaurant",
    "straat": "Kraankinderstraat",
    "huisnr": "2",
    "huisnrtoev": "",
    "postcode": "9000",
    "deelgemeente": "Gent",
    "BRANCHE": "",
    "image": "/images/resto/11.jpeg",
    "column_8": "",
    "column_9": "",
    "column_10": ""
  },
  {
    "naam": "De Fobie",
    "straat": "Brusselsepoortstraat",
    "huisnr": "61",
    "huisnrtoev": "",
    "postcode": "9000",
    "deelgemeente": "Gent",
    "BRANCHE": "59.210.430-Café-Restaurant",
    "image": "/images/resto/12.jpeg",
    "column_8": "",
    "column_9": "",
    "column_10": ""
  },
  {
    "naam": "De Groene Waaier",
    "straat": "Schoonmeersstraat",
    "huisnr": "25",
    "huisnrtoev": "",
    "postcode": "9000",
    "deelgemeente": "Gent",
    "BRANCHE": "59.210.434-Restaurant",
    "image": "/images/resto/13.jpeg",
    "column_8": "",
    "column_9": "",
    "column_10": ""
  },
  {
    "naam": "De Stokerij",
    "straat": "Tichelrei",
    "huisnr": "2",
    "huisnrtoev": "A",
    "postcode": "9000",
    "deelgemeente": "Gent",
    "BRANCHE": "59.210.430-Café-Restaurant",
    "image": "/images/resto/14.jpeg",
    "column_8": "",
    "column_9": "",
    "column_10": ""
  },
  {
    "naam": "De Welzijnsknoop sociaal restaurant",
    "straat": "Hundelgemse steenweg ",
    "huisnr": "125",
    "huisnrtoev": "",
    "postcode": "9050",
    "deelgemeente": "Ledeberg",
    "BRANCHE": "",
    "image": "/images/resto/15.jpeg",
    "column_8": "",
    "column_9": "",
    "column_10": ""
  },
  {
    "naam": "De Witte Leeuw",
    "straat": "Graslei",
    "huisnr": "6",
    "huisnrtoev": "",
    "postcode": "9000",
    "deelgemeente": "Gent",
    "BRANCHE": "59.210.434-Restaurant",
    "image": "/images/resto/16.jpg",
    "column_8": "",
    "column_9": "",
    "column_10": ""
  },
  {
    "naam": "Dolly's",
    "straat": "Donkersteeg",
    "huisnr": "19",
    "huisnrtoev": "",
    "postcode": "9000",
    "deelgemeente": "Gent",
    "BRANCHE": "59.210.434-Restaurant",
    "image": "/images/resto/17.jpg",
    "column_8": "",
    "column_9": "",
    "column_10": ""
  },
  {
    "naam": "Du Progrès",
    "straat": "Korenmarkt",
    "huisnr": "10",
    "huisnrtoev": "",
    "postcode": "9000",
    "deelgemeente": "Gent",
    "BRANCHE": "59.210.430-Café-Restaurant",
    "image": "/images/resto/18.jpg",
    "column_8": "",
    "column_9": "",
    "column_10": ""
  },
  {
    "naam": "Eetkaffee Multatuli",
    "straat": "Huidevetterskaai",
    "huisnr": "40",
    "huisnrtoev": "",
    "postcode": "9000",
    "deelgemeente": "Gent",
    "BRANCHE": "",
    "image": "/images/resto/19.jpeg",
    "column_8": "",
    "column_9": "",
    "column_10": ""
  },
  {
    "naam": "Faja Lobi",
    "straat": "Vlaanderenstraat",
    "huisnr": "2",
    "huisnrtoev": "4",
    "postcode": "9000",
    "deelgemeente": "Gent",
    "BRANCHE": "59.210.430-Café-Restaurant",
    "image": "/images/resto/1.jpg",
    "column_8": "",
    "column_9": "",
    "column_10": ""
  },
  {
    "naam": "Firenze Da Carmelo",
    "straat": "Sint-Amandstraat",
    "huisnr": "1",
    "huisnrtoev": "",
    "postcode": "9000",
    "deelgemeente": "Gent",
    "BRANCHE": "59.210.434-Restaurant",
    "image": "/images/resto/2.jpg",
    "column_8": "",
    "column_9": "",
    "column_10": ""
  },
  {
    "naam": "Gouden Paard",
    "straat": "Dendermondsesteenweg",
    "huisnr": "206",
    "huisnrtoev": "",
    "postcode": "9040",
    "deelgemeente": "Sint-Amandsberg",
    "BRANCHE": "59.210.434-Restaurant",
    "image": "/images/resto/3.jpg",
    "column_8": "",
    "column_9": "",
    "column_10": ""
  },
  {
    "naam": "Gust",
    "straat": "Annonciadenstraat",
    "huisnr": "4",
    "huisnrtoev": "",
    "postcode": "9000",
    "deelgemeente": "Gent",
    "BRANCHE": "59.210.434-Restaurant",
    "image": "/images/resto/4.jpg",
    "column_8": "",
    "column_9": "",
    "column_10": ""
  },
  {
    "naam": "Het Klaverblad",
    "straat": "Antwerpsesteenweg",
    "huisnr": "963",
    "huisnrtoev": "",
    "postcode": "9041",
    "deelgemeente": "Oostakker",
    "BRANCHE": "59.210.434-Restaurant",
    "image": "/images/resto/5.jpg",
    "column_8": "",
    "column_9": "",
    "column_10": ""
  },
  {
    "naam": "Hof van Herzele",
    "straat": "Sint-Baafsplein",
    "huisnr": "34",
    "huisnrtoev": "",
    "postcode": "9000",
    "deelgemeente": "Gent",
    "BRANCHE": "59.210.430-Café-Restaurant",
    "image": "/images/resto/7.jpeg",
    "column_8": "",
    "column_9": "",
    "column_10": ""
  },
  {
    "naam": "Lekker Gec",
    "straat": "Koningin Maria Hendrikaplein",
    "huisnr": "5",
    "huisnrtoev": "",
    "postcode": "9000",
    "deelgemeente": "Gent",
    "BRANCHE": "59.210.434-Restaurant",
    "image": "/images/resto/8.jpeg",
    "column_8": "",
    "column_9": "",
    "column_10": ""
  },
  {
    "naam": "Marco Polo Trattoria",
    "straat": "Serpentstraat",
    "huisnr": "11",
    "huisnrtoev": "",
    "postcode": "9000",
    "deelgemeente": "Gent",
    "BRANCHE": "59.210.434-Restaurant",
    "image": "/images/resto/9.jpeg",
    "column_8": "",
    "column_9": "",
    "column_10": ""
  },
  {
    "naam": "Mosquito Coast",
    "straat": "Hoogpoort",
    "huisnr": "28",
    "huisnrtoev": "",
    "postcode": "9000",
    "deelgemeente": "Gent",
    "BRANCHE": "59.210.430-Café-Restaurant",
    "image": "/images/resto/10.jpeg",
    "column_8": "",
    "column_9": "",
    "column_10": ""
  },
  {
    "naam": "Mub'art",
    "straat": "Fernand Scribedreef",
    "huisnr": "1",
    "huisnrtoev": "",
    "postcode": "9000",
    "deelgemeente": "Gent",
    "BRANCHE": "59.210.430-Café-Restaurant",
    "image": "/images/resto/11.jpeg",
    "column_8": "",
    "column_9": "",
    "column_10": ""
  },
  {
    "naam": "Örnek",
    "straat": "Oudburg",
    "huisnr": "17",
    "huisnrtoev": "",
    "postcode": "9000",
    "deelgemeente": "Gent",
    "BRANCHE": "59.210.434-Restaurant",
    "image": "/images/resto/12.jpeg",
    "column_8": "",
    "column_9": "",
    "column_10": ""
  },
  {
    "naam": "Oude Vismijn",
    "straat": "Sint-Veerleplein",
    "huisnr": "5",
    "huisnrtoev": "",
    "postcode": "9000",
    "deelgemeente": "Gent",
    "BRANCHE": "59.210.430-Café-Restaurant",
    "image": "/images/resto/13.jpeg",
    "column_8": "",
    "column_9": "",
    "column_10": ""
  },
  {
    "naam": "Pacha Mama",
    "straat": "Jan-Baptist Guinardstraat",
    "huisnr": "9",
    "huisnrtoev": "",
    "postcode": "9000",
    "deelgemeente": "Gent",
    "BRANCHE": "59.210.434-Restaurant",
    "image": "/images/resto/14.jpeg",
    "column_8": "",
    "column_9": "",
    "column_10": ""
  },
  {
    "naam": "Pakhuis",
    "straat": "Schuurkenstraat",
    "huisnr": "4",
    "huisnrtoev": "",
    "postcode": "9000",
    "deelgemeente": "Gent",
    "BRANCHE": "59.210.430-Café-Restaurant",
    "image": "/images/resto/15.jpeg",
    "column_8": "",
    "column_9": "",
    "column_10": ""
  },
  {
    "naam": "Pane & Vino",
    "straat": "Nederkouter",
    "huisnr": "9",
    "huisnrtoev": "",
    "postcode": "9000",
    "deelgemeente": "Gent",
    "BRANCHE": "59.210.434-Restaurant",
    "image": "/images/resto/16.jpg",
    "column_8": "",
    "column_9": "",
    "column_10": ""
  },
  {
    "naam": "Parnassus",
    "straat": "Oude Houtlei",
    "huisnr": "122",
    "huisnrtoev": "",
    "postcode": "9000",
    "deelgemeente": "Gent",
    "BRANCHE": "",
    "image": "/images/resto/17.jpg",
    "column_8": "",
    "column_9": "",
    "column_10": ""
  },
  {
    "naam": "Peking",
    "straat": "Korenmarkt",
    "huisnr": "17",
    "huisnrtoev": "",
    "postcode": "9000",
    "deelgemeente": "Gent",
    "BRANCHE": "59.210.434-Restaurant",
    "image": "/images/resto/18.jpg",
    "column_8": "",
    "column_9": "",
    "column_10": ""
  },
  {
    "naam": "Ristorante da Mauro",
    "straat": "Botestraat",
    "huisnr": "1",
    "huisnrtoev": "H-I",
    "postcode": "9032",
    "deelgemeente": "Wondelgem",
    "BRANCHE": "59.210.434-Restaurant",
    "image": "/images/resto/19.jpeg",
    "column_8": "",
    "column_9": "",
    "column_10": ""
  },
  {
    "naam": "Salons Carlos Quinto",
    "straat": "Kammerstraat",
    "huisnr": "20",
    "huisnrtoev": "",
    "postcode": "9000",
    "deelgemeente": "Gent",
    "BRANCHE": "59.210.434-Restaurant",
    "image": "/images/resto/1.jpg",
    "column_8": "",
    "column_9": "",
    "column_10": ""
  },
  {
    "naam": "Salt 'n Pepper",
    "straat": "Koningin Maria Hendrikaplein",
    "huisnr": "38",
    "huisnrtoev": "",
    "postcode": "9000",
    "deelgemeente": "Gent",
    "BRANCHE": "59.210.434-Restaurant",
    "image": "/images/resto/2.jpg",
    "column_8": "",
    "column_9": "",
    "column_10": ""
  },
  {
    "naam": "Simon Says",
    "straat": "Sluizeken",
    "huisnr": "8",
    "huisnrtoev": "",
    "postcode": "9000",
    "deelgemeente": "Gent",
    "BRANCHE": "59.210.430-Café-Restaurant",
    "image": "/images/resto/3.jpg",
    "column_8": "",
    "column_9": "",
    "column_10": ""
  },
  {
    "naam": "'t Oud Postje",
    "straat": "Meulesteedsesteenweg",
    "huisnr": "455",
    "huisnrtoev": "",
    "postcode": "9000",
    "deelgemeente": "Gent",
    "BRANCHE": "59.210.434-Restaurant",
    "image": "/images/resto/4.jpg",
    "column_8": "",
    "column_9": "",
    "column_10": ""
  },
  {
    "naam": "'t Vrij Dags Gevoel",
    "straat": "Vrijdagmarkt",
    "huisnr": "29",
    "huisnrtoev": "",
    "postcode": "9000",
    "deelgemeente": "Gent",
    "BRANCHE": "59.210.430-Café-Restaurant",
    "image": "/images/resto/5.jpg",
    "column_8": "",
    "column_9": "",
    "column_10": ""
  },
  {
    "naam": "Tampopo",
    "straat": "Steenaardestraat",
    "huisnr": "40",
    "huisnrtoev": "",
    "postcode": "9051",
    "deelgemeente": "Sint-Denijs-Westrem",
    "BRANCHE": "59.210.434-Restaurant",
    "image": "/images/resto/6.jpeg",
    "column_8": "",
    "column_9": "",
    "column_10": ""
  },
  {
    "naam": "Toreke Eetcafé",
    "straat": "Vlotstraat",
    "huisnr": "22",
    "huisnrtoev": "",
    "postcode": "9000",
    "deelgemeente": "Gent",
    "BRANCHE": "",
    "image": "/images/resto/7.jpeg",
    "column_8": "",
    "column_9": "",
    "column_10": ""
  },
  {
    "naam": "Trafiek vzw",
    "straat": "Haspelstraat",
    "huisnr": "37/A",
    "huisnrtoev": "",
    "postcode": "9000",
    "deelgemeente": "Gent",
    "BRANCHE": "",
    "image": "/images/resto/8.jpeg",
    "column_8": "",
    "column_9": "",
    "column_10": ""
  },
  {
    "naam": "Tuin Van Eten",
    "straat": "Kortrijksesteenweg",
    "huisnr": "573",
    "huisnrtoev": "",
    "postcode": "9000",
    "deelgemeente": "Gent",
    "BRANCHE": "59.210.434-Restaurant",
    "image": "/images/resto/9.jpeg",
    "column_8": "",
    "column_9": "",
    "column_10": ""
  },
  {
    "naam": "Twilight",
    "straat": "Korenmarkt",
    "huisnr": "36",
    "huisnrtoev": "",
    "postcode": "9000",
    "deelgemeente": "Gent",
    "BRANCHE": "59.210.430-Café-Restaurant",
    "image": "/images/resto/10.jpeg",
    "column_8": "",
    "column_9": "",
    "column_10": ""
  },
  {
    "naam": "Volta",
    "straat": "Nieuwewandeling",
    "huisnr": "2",
    "huisnrtoev": "B",
    "postcode": "9000",
    "deelgemeente": "Gent",
    "BRANCHE": "59.210.430-Café-Restaurant",
    "image": "/images/resto/11.jpeg",
    "column_8": "",
    "column_9": "",
    "column_10": ""
  },
  {
    "naam": "De Appelier",
    "straat": "Citadellaan",
    "huisnr": "47",
    "huisnrtoev": "",
    "postcode": "9000",
    "deelgemeente": "Gent",
    "BRANCHE": "59.210.434-Restaurant",
    "image": "/images/resto/12.jpeg",
    "column_8": "",
    "column_9": "",
    "column_10": ""
  },
  {
    "naam": "Aula Slagerij Restaurant",
    "straat": "Voldersstraat",
    "huisnr": "24",
    "huisnrtoev": "",
    "postcode": "9000",
    "deelgemeente": "Gent",
    "BRANCHE": "59.210.434-Restaurant",
    "image": "/images/resto/13.jpeg",
    "column_8": "",
    "column_9": "",
    "column_10": ""
  },
  {
    "naam": "Groot Vleeshuis",
    "straat": "Groentenmarkt",
    "huisnr": "7",
    "huisnrtoev": "",
    "postcode": "9000",
    "deelgemeente": "Gent",
    "BRANCHE": "59.210.434-Restaurant",
    "image": "/images/resto/14.jpeg",
    "column_8": "",
    "column_9": "",
    "column_10": ""
  },
  {
    "naam": "Compaan",
    "straat": "Antwerpsesteenweg",
    "huisnr": "573",
    "huisnrtoev": "",
    "postcode": "9040",
    "deelgemeente": "Gent",
    "BRANCHE": "59.210.434-Restaurant",
    "image": "/images/resto/15.jpeg",
    "column_8": "",
    "column_9": "",
    "column_10": ""
  },
  {
    "naam": "Seli?s noodlebar",
    "straat": "Limburgstraat",
    "huisnr": "28",
    "huisnrtoev": "",
    "postcode": "9000",
    "deelgemeente": "Gent",
    "BRANCHE": "59.210.434-Restaurant",
    "image": "/images/resto/16.jpg",
    "column_8": "",
    "column_9": "",
    "column_10": ""
  },
  {
    "naam": "Vooruit",
    "straat": "Sint-Pietersnieuwstraat",
    "huisnr": "23",
    "huisnrtoev": "",
    "postcode": "9000",
    "deelgemeente": "Gent",
    "BRANCHE": "59.210.434-Restaurant",
    "image": "/images/resto/17.jpg",
    "column_8": "",
    "column_9": "",
    "column_10": ""
  },
  {
    "naam": "Sogno Italiano",
    "straat": "Vogeljacht",
    "huisnr": "20",
    "huisnrtoev": "",
    "postcode": "9041",
    "deelgemeente": "Ooostakker",
    "BRANCHE": "59.210.434-Restaurant",
    "image": "/images/resto/18.jpg",
    "column_8": "",
    "column_9": "",
    "column_10": ""
  },
  {
    "naam": "Walter's Restaurant Winebar and Wineboutique",
    "straat": "Nederkouter",
    "huisnr": "3",
    "huisnrtoev": "",
    "postcode": "9000",
    "deelgemeente": "Gent",
    "BRANCHE": "59.210.434-Restaurant",
    "image": "/images/resto/19.jpeg",
    "column_8": "",
    "column_9": "",
    "column_10": ""
  },
  {
    "naam": "",
    "straat": "",
    "huisnr": "",
    "huisnrtoev": "",
    "postcode": "",
    "deelgemeente": "",
    "BRANCHE": "",
    "image": "/images/resto/1.jpg",
    "column_8": "",
    "column_9": "",
    "column_10": ""
  }
]